ISS (ZARYA)             
1 25544U 98067A   25350.08808596  .00006404  00000+0  12171-3 0  9997
2 25544  51.6306 125.8981 0003173 255.6781 104.3856 15.49613604543373
CSS (TIANHE)            
1 48274U 21035A   25350.30145476  .00017088  00000+0  21422-3 0  9998
2 48274  41.4684 355.0821 0007855  60.8888 299.2736 15.59326293264589
ISS (NAUKA)             
1 49044U 21066A   25350.08808596  .00006404  00000+0  12171-3 0  9993
2 49044  51.6306 125.8981 0003173 255.6781 104.3856 15.49613604230445
FREGAT DEB              
1 49271U 11037PF  25349.97149260  .00003730  00000+0  85401-2 0  9998
2 49271  51.6469 189.8745 0862473 230.7116 121.4133 12.34468246202333
CSS (WENTIAN)           
1 53239U 22085A   25350.30145476  .00017088  00000+0  21422-3 0  9991
2 53239  41.4684 355.0821 0007855  60.8888 299.2736 15.59326293173844
CSS (MENGTIAN)          
1 54216U 22143A   25350.30145476  .00017088  00000+0  21422-3 0  9992
2 54216  41.4684 355.0821 0007855  60.8888 299.2736 15.59326293158641
SHENZHOU-20 (SZ-20)     
1 63632U 25082A   25350.30145476  .00017088  00000+0  21422-3 0  9999
2 63632  41.4684 355.0821 0007855  60.8888 299.2736 15.59326293255304
PROGRESS-MS 31          
1 64751U 25146A   25350.08808596  .00006404  00000+0  12171-3 0  9998
2 64751  51.6306 125.8981 0003173 255.6781 104.3856 15.49613604  6752
TIANZHOU-9              
1 64786U 25149A   25350.30145476  .00017088  00000+0  21422-3 0  9994
2 64786  41.4684 355.0821 0007855  60.8888 299.2736 15.59326293255305
CREW DRAGON 11          
1 65077U 25166A   25350.08808596  .00006404  00000+0  12171-3 0  9992
2 65077  51.6306 125.8981 0003173 255.6781 104.3856 15.49613604  2143
DRAGON CRS-33           
1 65304U 25186A   25350.08808596  .00006404  00000+0  12171-3 0  9997
2 65304  51.6306 125.8981 0003173 255.6781 104.3856 15.49613604   111
PROGRESS-MS 32          
1 65586U 25204A   25350.08808596  .00006404  00000+0  12171-3 0  9990
2 65586  51.6306 125.8981 0003173 255.6781 104.3856 15.49613604   270
